{
  "type": "FeatureCollection",
  "features": [
    {
      "type": "Feature",
      "properties": {
        "norad_id": 37867,
        "name": "COSMOS 2476 (744)",
        "group": "glo-ops",
        "lat": -55.827992009410536,
        "lon": 35.87073099969684,
        "alt_km": 19103.35328130314,
        "timestamp": "2025-12-24T07:45:06.460795+00:00",
        "meta_object_name": "COSMOS 2476 (744)",
        "meta_object_id": "2011-064A",
        "meta_epoch": "2025-12-23T12:51:54.046080",
        "meta_mean_motion": 2.13103692,
        "meta_eccentricity": 0.00245495,
        "meta_inclination": 65.1675,
        "meta_ra_of_asc_node": 78.8064,
        "meta_arg_of_pericenter": 235.5256,
        "meta_mean_anomaly": 174.828,
        "meta_ephemeris_type": 0,
        "meta_classification_type": "U",
        "meta_norad_cat_id": 37867,
        "meta_element_set_no": 999,
        "meta_rev_at_epoch": 11002,
        "meta_bstar": 0,
        "meta_mean_motion_dot": 1e-08,
        "meta_mean_motion_ddot": 0,
        "tle_line1": "1 37867U 11064A   25357.53604220  .00000001  00000+0  00000+0 0  9996",
        "tle_line2": "2 37867  65.1675  78.8064 0024549 235.5256 174.8280  2.13103692110029"
      },
      "geometry": {
        "type": "Point",
        "coordinates": [
          35.87073099969684,
          -55.827992009410536
        ]
      }
    },
    {
      "type": "Feature",
      "properties": {
        "norad_id": 37868,
        "name": "COSMOS 2477 (745)",
        "group": "glo-ops",
        "lat": 55.52034588624423,
        "lon": -143.42751099450138,
        "alt_km": 19151.557538433455,
        "timestamp": "2025-12-24T07:45:06.460806+00:00",
        "meta_object_name": "COSMOS 2477 (745)",
        "meta_object_id": "2011-064B",
        "meta_epoch": "2025-12-23T05:19:57.056160",
        "meta_mean_motion": 2.13103036,
        "meta_eccentricity": 0.00215459,
        "meta_inclination": 65.1742,
        "meta_ra_of_asc_node": 78.8944,
        "meta_arg_of_pericenter": 235.4149,
        "meta_mean_anomaly": 115.0574,
        "meta_ephemeris_type": 0,
        "meta_classification_type": "U",
        "meta_norad_cat_id": 37868,
        "meta_element_set_no": 999,
        "meta_rev_at_epoch": 11000,
        "meta_bstar": 0,
        "meta_mean_motion_dot": 0,
        "meta_mean_motion_ddot": 0,
        "tle_line1": "1 37868U 11064B   25357.22218815  .00000000  00000+0  00000+0 0  9993",
        "tle_line2": "2 37868  65.1742  78.8944 0021545 235.4149 115.0574  2.13103036110008"
      },
      "geometry": {
        "type": "Point",
        "coordinates": [
          -143.42751099450138,
          55.52034588624423
        ]
      }
    },
    {
      "type": "Feature",
      "properties": {
        "norad_id": 37869,
        "name": "COSMOS 2475 (743)",
        "group": "glo-ops",
        "lat": 59.028500282629025,
        "lon": 129.22889471805496,
        "alt_km": 19191.637108546907,
        "timestamp": "2025-12-24T07:45:06.460817+00:00",
        "meta_object_name": "COSMOS 2475 (743)",
        "meta_object_id": "2011-064C",
        "meta_epoch": "2025-12-23T10:47:00.283776",
        "meta_mean_motion": 2.13101666,
        "meta_eccentricity": 0.00267392,
        "meta_inclination": 65.1811,
        "meta_ra_of_asc_node": 78.907,
        "meta_arg_of_pericenter": 249.1906,
        "meta_mean_anomaly": 231.4149,
        "meta_ephemeris_type": 0,
        "meta_classification_type": "U",
        "meta_norad_cat_id": 37869,
        "meta_element_set_no": 999,
        "meta_rev_at_epoch": 11002,
        "meta_bstar": 0,
        "meta_mean_motion_dot": 1e-08,
        "meta_mean_motion_ddot": 0,
        "tle_line1": "1 37869U 11064C   25357.44930884  .00000001  00000+0  00000+0 0  9996",
        "tle_line2": "2 37869  65.1811  78.9070 0026739 249.1906 231.4149  2.13101666110020"
      },
      "geometry": {
        "type": "Point",
        "coordinates": [
          129.22889471805496,
          59.028500282629025
        ]
      }
    },
    {
      "type": "Feature",
      "properties": {
        "norad_id": 39155,
        "name": "COSMOS 2485 (747)",
        "group": "glo-ops",
        "lat": -15.779099031443216,
        "lon": 72.03667517760992,
        "alt_km": 19156.31198927416,
        "timestamp": "2025-12-24T07:45:06.460828+00:00",
        "meta_object_name": "COSMOS 2485 (747)",
        "meta_object_id": "2013-019A",
        "meta_epoch": "2025-12-22T22:30:40.320288",
        "meta_mean_motion": 2.13103234,
        "meta_eccentricity": 0.00250055,
        "meta_inclination": 65.3186,
        "meta_ra_of_asc_node": 79.5244,
        "meta_arg_of_pericenter": 230.4541,
        "meta_mean_anomaly": 129.3696,
        "meta_ephemeris_type": 0,
        "meta_classification_type": "U",
        "meta_norad_cat_id": 39155,
        "meta_element_set_no": 999,
        "meta_rev_at_epoch": 9852,
        "meta_bstar": 0,
        "meta_mean_motion_dot": 0,
        "meta_mean_motion_ddot": 0,
        "tle_line1": "1 39155U 13019A   25356.93796667  .00000000  00000+0  00000+0 0  9999",
        "tle_line2": "2 39155  65.3186  79.5244 0025005 230.4541 129.3696  2.13103234 98525"
      },
      "geometry": {
        "type": "Point",
        "coordinates": [
          72.03667517760992,
          -15.779099031443216
        ]
      }
    },
    {
      "type": "Feature",
      "properties": {
        "norad_id": 39620,
        "name": "COSMOS 2492 (754)",
        "group": "glo-ops",
        "lat": 13.008492174196498,
        "lon": -34.06731018270131,
        "alt_km": 19110.980196356068,
        "timestamp": "2025-12-24T07:45:06.460839+00:00",
        "meta_object_name": "COSMOS 2492 (754)",
        "meta_object_id": "2014-012A",
        "meta_epoch": "2025-12-21T22:59:34.433088",
        "meta_mean_motion": 2.13103396,
        "meta_eccentricity": 0.00142426,
        "meta_inclination": 65.4026,
        "meta_ra_of_asc_node": 319.9579,
        "meta_arg_of_pericenter": 313.3292,
        "meta_mean_anomaly": 46.5466,
        "meta_ephemeris_type": 0,
        "meta_classification_type": "U",
        "meta_norad_cat_id": 39620,
        "meta_element_set_no": 999,
        "meta_rev_at_epoch": 9146,
        "meta_bstar": 0,
        "meta_mean_motion_dot": -4.2e-07,
        "meta_mean_motion_ddot": 0,
        "tle_line1": "1 39620U 14012A   25355.95803742 -.00000042  00000+0  00000+0 0  9991",
        "tle_line2": "2 39620  65.4026 319.9579 0014242 313.3292  46.5466  2.13103396 91463"
      },
      "geometry": {
        "type": "Point",
        "coordinates": [
          -34.06731018270131,
          13.008492174196498
        ]
      }
    },
    {
      "type": "Feature",
      "properties": {
        "norad_id": 40001,
        "name": "COSMOS 2500 (755)",
        "group": "glo-ops",
        "lat": -53.60410696101226,
        "lon": 178.14697693006235,
        "alt_km": 19117.454142228977,
        "timestamp": "2025-12-24T07:45:06.460850+00:00",
        "meta_object_name": "COSMOS 2500 (755)",
        "meta_object_id": "2014-032A",
        "meta_epoch": "2025-12-21T04:35:55.026240",
        "meta_mean_motion": 2.13106227,
        "meta_eccentricity": 0.00077299,
        "meta_inclination": 65.3386,
        "meta_ra_of_asc_node": 319.7453,
        "meta_arg_of_pericenter": 219.3736,
        "meta_mean_anomaly": 140.5635,
        "meta_ephemeris_type": 0,
        "meta_classification_type": "U",
        "meta_norad_cat_id": 40001,
        "meta_element_set_no": 999,
        "meta_rev_at_epoch": 8966,
        "meta_bstar": 0,
        "meta_mean_motion_dot": -4.7e-07,
        "meta_mean_motion_ddot": 0,
        "tle_line1": "1 40001U 14032A   25355.19160910 -.00000047  00000+0  00000+0 0  9992",
        "tle_line2": "2 40001  65.3386 319.7453 0007729 219.3736 140.5635  2.13106227 89663"
      },
      "geometry": {
        "type": "Point",
        "coordinates": [
          178.14697693006235,
          -53.60410696101226
        ]
      }
    },
    {
      "type": "Feature",
      "properties": {
        "norad_id": 40315,
        "name": "COSMOS 2501 (702K)",
        "group": "glo-ops",
        "lat": 37.478987960357905,
        "lon": -141.1877016343737,
        "alt_km": 19174.209101578846,
        "timestamp": "2025-12-24T07:45:06.460871+00:00",
        "meta_object_name": "COSMOS 2501 (702K)",
        "meta_object_id": "2014-075A",
        "meta_epoch": "2025-12-19T02:31:27.452640",
        "meta_mean_motion": 2.13101513,
        "meta_eccentricity": 0.0020099,
        "meta_inclination": 63.6146,
        "meta_ra_of_asc_node": 196.6046,
        "meta_arg_of_pericenter": 204.1838,
        "meta_mean_anomaly": 155.7988,
        "meta_ephemeris_type": 0,
        "meta_classification_type": "U",
        "meta_norad_cat_id": 40315,
        "meta_element_set_no": 999,
        "meta_rev_at_epoch": 8601,
        "meta_bstar": 0,
        "meta_mean_motion_dot": 1.06e-06,
        "meta_mean_motion_ddot": 0,
        "tle_line1": "1 40315U 14075A   25353.10517885  .00000106  00000+0  00000+0 0  9998",
        "tle_line2": "2 40315  63.6146 196.6046 0020099 204.1838 155.7988  2.13101513 86014"
      },
      "geometry": {
        "type": "Point",
        "coordinates": [
          -141.1877016343737,
          37.478987960357905
        ]
      }
    }
  ]
}